{"fetched_at":"2026-03-30T06:02:59Z","count":15439,"tles":[{"name":"STARLINK-4038","line1":"1 53150U 22083U   26088.11514523  .02347385  11930-4  80025-3 0  9993","line2":"2 53150  53.1923  19.2775 0002144 238.8215 121.2617 16.24819044205095","category":"Starlink"}]}